{"fetched_at":"2026-03-29T02:12:04Z","count":15717,"tles":[{"name":"2025-180D","line1":"1 65262U 25180D   26078.10912822  .00005352  00000+0  29342-3 0  9992","line2":"2 65262  97.5109 206.2920 0013068 271.1748  88.7986 15.14537415 32022","category":"Other"}]}