{
  "norad_id": 65262,
  "name": "2025-180D",
  "history": [
    {
      "epoch": "2026-03-19T02:37:08.678208",
      "apogee_km": 531.4011618820105,
      "perigee_km": 513.3654100210251,
      "latitude_deg": -84.49154944222424,
      "longitude_deg": -147.32369087985717,
      "semi_major_axis_km": 6900.5202859515175,
      "eccentricity": 0.00130684,
      "inclination_deg": 97.5109,
      "raan_deg": 206.292,
      "arg_perigee_deg": 271.1748,
      "mean_anomaly_deg": 88.7986,
      "mean_motion_rev_day": 15.14537415
    }
  ]
}